{
"type": "FeatureCollection",
"name": "city_spend",
"crs": { "type": "name", "properties": { "name": "urn:ogc:def:crs:OGC:1.3:CRS84" } },
"features": [
{ "type": "Feature", "properties": { "City": "adelaide", "Country": "australia", "Latitude": -34.9275, "Longitude": 138.6, "Total_Spend": 12760242.751016069 }, "geometry": { "type": "Point", "coordinates": [ 138.6, -34.9275 ] } },
{ "type": "Feature", "properties": { "City": "ballarat", "Country": "australia", "Latitude": -37.5608, "Longitude": 143.8475, "Total_Spend": 12834037.44849224 }, "geometry": { "type": "Point", "coordinates": [ 143.8475, -37.5608 ] } },
{ "type": "Feature", "properties": { "City": "barrie", "Country": "canada", "Latitude": 44.3711, "Longitude": -79.6769, "Total_Spend": 13319234.91293685 }, "geometry": { "type": "Point", "coordinates": [ -79.6769, 44.3711 ] } },
{ "type": "Feature", "properties": { "City": "bendigo", "Country": "australia", "Latitude": -36.75, "Longitude": 144.2667, "Total_Spend": 13352346.05383471 }, "geometry": { "type": "Point", "coordinates": [ 144.2667, -36.75 ] } },
{ "type": "Feature", "properties": { "City": "berlin", "Country": "germany", "Latitude": 52.52, "Longitude": 13.405, "Total_Spend": 12788385.800571449 }, "geometry": { "type": "Point", "coordinates": [ 13.405, 52.52 ] } },
{ "type": "Feature", "properties": { "City": "bielefeld", "Country": "germany", "Latitude": 52.0211, "Longitude": 8.5347, "Total_Spend": 13336521.7738776 }, "geometry": { "type": "Point", "coordinates": [ 8.5347, 52.0211 ] } },
{ "type": "Feature", "properties": { "City": "bochum", "Country": "germany", "Latitude": 51.4819, "Longitude": 7.2158, "Total_Spend": 12775831.019733841 }, "geometry": { "type": "Point", "coordinates": [ 7.2158, 51.4819 ] } },
{ "type": "Feature", "properties": { "City": "bonn", "Country": "germany", "Latitude": 50.7353, "Longitude": 7.1022, "Total_Spend": 13412466.585253561 }, "geometry": { "type": "Point", "coordinates": [ 7.1022, 50.7353 ] } },
{ "type": "Feature", "properties": { "City": "bremen", "Country": "germany", "Latitude": 53.0758, "Longitude": 8.8072, "Total_Spend": 13138668.725405071 }, "geometry": { "type": "Point", "coordinates": [ 8.8072, 53.0758 ] } },
{ "type": "Feature", "properties": { "City": "brisbane", "Country": "australia", "Latitude": -27.4678, "Longitude": 153.0281, "Total_Spend": 13373632.425626971 }, "geometry": { "type": "Point", "coordinates": [ 153.0281, -27.4678 ] } },
{ "type": "Feature", "properties": { "City": "cairns", "Country": "australia", "Latitude": -16.92, "Longitude": 145.78, "Total_Spend": 12735076.009449709 }, "geometry": { "type": "Point", "coordinates": [ 145.78, -16.92 ] } },
{ "type": "Feature", "properties": { "City": "calgary", "Country": "canada", "Latitude": 51.05, "Longitude": -114.0667, "Total_Spend": 13539846.91350266 }, "geometry": { "type": "Point", "coordinates": [ -114.0667, 51.05 ] } },
{ "type": "Feature", "properties": { "City": "canberra", "Country": "australia", "Latitude": -35.2931, "Longitude": 149.1269, "Total_Spend": 12655647.91026167 }, "geometry": { "type": "Point", "coordinates": [ 149.1269, -35.2931 ] } },
{ "type": "Feature", "properties": { "City": "cologne", "Country": "germany", "Latitude": 50.9364, "Longitude": 6.9528, "Total_Spend": 12764671.44637431 }, "geometry": { "type": "Point", "coordinates": [ 6.9528, 50.9364 ] } },
{ "type": "Feature", "properties": { "City": "darwin", "Country": "australia", "Latitude": -12.4381, "Longitude": 130.8411, "Total_Spend": 13701912.805324409 }, "geometry": { "type": "Point", "coordinates": [ 130.8411, -12.4381 ] } },
{ "type": "Feature", "properties": { "City": "dortmund", "Country": "germany", "Latitude": 51.5139, "Longitude": 7.4653, "Total_Spend": 12543160.73248522 }, "geometry": { "type": "Point", "coordinates": [ 7.4653, 51.5139 ] } },
{ "type": "Feature", "properties": { "City": "dresden", "Country": "germany", "Latitude": 51.05, "Longitude": 13.74, "Total_Spend": 12887865.15150423 }, "geometry": { "type": "Point", "coordinates": [ 13.74, 51.05 ] } },
{ "type": "Feature", "properties": { "City": "duisburg", "Country": "germany", "Latitude": 51.4347, "Longitude": 6.7625, "Total_Spend": 12713044.73091254 }, "geometry": { "type": "Point", "coordinates": [ 6.7625, 51.4347 ] } },
{ "type": "Feature", "properties": { "City": "düsseldorf", "Country": "germany", "Latitude": 51.2256, "Longitude": 6.7767, "Total_Spend": 13164965.911392599 }, "geometry": { "type": "Point", "coordinates": [ 6.7767, 51.2256 ] } },
{ "type": "Feature", "properties": { "City": "edmonton", "Country": "canada", "Latitude": 53.5344, "Longitude": -113.4903, "Total_Spend": 13649762.40286687 }, "geometry": { "type": "Point", "coordinates": [ -113.4903, 53.5344 ] } },
{ "type": "Feature", "properties": { "City": "essen", "Country": "germany", "Latitude": 51.4508, "Longitude": 7.0131, "Total_Spend": 12882831.406699611 }, "geometry": { "type": "Point", "coordinates": [ 7.0131, 51.4508 ] } },
{ "type": "Feature", "properties": { "City": "essen", "Country": "germany", "Latitude": 52.7211, "Longitude": 7.9406, "Total_Spend": 12882831.406699611 }, "geometry": { "type": "Point", "coordinates": [ 7.9406, 52.7211 ] } },
{ "type": "Feature", "properties": { "City": "frankfurt", "Country": "germany", "Latitude": 50.1106, "Longitude": 8.6822, "Total_Spend": 58824243.445829578 }, "geometry": { "type": "Point", "coordinates": [ 8.6822, 50.1106 ] } },
{ "type": "Feature", "properties": { "City": "geelong", "Country": "australia", "Latitude": -38.15, "Longitude": 144.35, "Total_Spend": 13492605.09746208 }, "geometry": { "type": "Point", "coordinates": [ 144.35, -38.15 ] } },
{ "type": "Feature", "properties": { "City": "gold coast", "Country": "australia", "Latitude": -28.0167, "Longitude": 153.4, "Total_Spend": 12705578.17017187 }, "geometry": { "type": "Point", "coordinates": [ 153.4, -28.0167 ] } },
{ "type": "Feature", "properties": { "City": "halifax", "Country": "canada", "Latitude": 44.6475, "Longitude": -63.5906, "Total_Spend": 12868790.590360019 }, "geometry": { "type": "Point", "coordinates": [ -63.5906, 44.6475 ] } },
{ "type": "Feature", "properties": { "City": "hamburg", "Country": "germany", "Latitude": 53.55, "Longitude": 10.0, "Total_Spend": 12803425.79756403 }, "geometry": { "type": "Point", "coordinates": [ 10.0, 53.55 ] } },
{ "type": "Feature", "properties": { "City": "hamilton", "Country": "canada", "Latitude": 43.2567, "Longitude": -79.8692, "Total_Spend": 12843980.7199846 }, "geometry": { "type": "Point", "coordinates": [ -79.8692, 43.2567 ] } },
{ "type": "Feature", "properties": { "City": "hobart", "Country": "australia", "Latitude": -42.8806, "Longitude": 147.325, "Total_Spend": 13526190.689117139 }, "geometry": { "type": "Point", "coordinates": [ 147.325, -42.8806 ] } },
{ "type": "Feature", "properties": { "City": "kelowna", "Country": "canada", "Latitude": 49.8881, "Longitude": -119.4956, "Total_Spend": 12860557.38666635 }, "geometry": { "type": "Point", "coordinates": [ -119.4956, 49.8881 ] } },
{ "type": "Feature", "properties": { "City": "kitchener", "Country": "canada", "Latitude": 43.4186, "Longitude": -80.4728, "Total_Spend": 12861896.682763349 }, "geometry": { "type": "Point", "coordinates": [ -80.4728, 43.4186 ] } },
{ "type": "Feature", "properties": { "City": "launceston", "Country": "australia", "Latitude": -41.4419, "Longitude": 147.145, "Total_Spend": 13332697.409525281 }, "geometry": { "type": "Point", "coordinates": [ 147.145, -41.4419 ] } },
{ "type": "Feature", "properties": { "City": "leipzig", "Country": "germany", "Latitude": 51.34, "Longitude": 12.375, "Total_Spend": 12811367.018591311 }, "geometry": { "type": "Point", "coordinates": [ 12.375, 51.34 ] } },
{ "type": "Feature", "properties": { "City": "london", "Country": "canada", "Latitude": 42.9836, "Longitude": -81.2497, "Total_Spend": 13222188.726569271 }, "geometry": { "type": "Point", "coordinates": [ -81.2497, 42.9836 ] } },
{ "type": "Feature", "properties": { "City": "mackay", "Country": "australia", "Latitude": -21.1411, "Longitude": 149.1858, "Total_Spend": 13821151.83625157 }, "geometry": { "type": "Point", "coordinates": [ 149.1858, -21.1411 ] } },
{ "type": "Feature", "properties": { "City": "melbourne", "Country": "australia", "Latitude": -37.8142, "Longitude": 144.9631, "Total_Spend": 12308889.764710311 }, "geometry": { "type": "Point", "coordinates": [ 144.9631, -37.8142 ] } },
{ "type": "Feature", "properties": { "City": "munich", "Country": "germany", "Latitude": 48.1375, "Longitude": 11.575, "Total_Spend": 13144929.467583491 }, "geometry": { "type": "Point", "coordinates": [ 11.575, 48.1375 ] } },
{ "type": "Feature", "properties": { "City": "münster", "Country": "germany", "Latitude": 49.9167, "Longitude": 8.8667, "Total_Spend": 12860808.561415801 }, "geometry": { "type": "Point", "coordinates": [ 8.8667, 49.9167 ] } },
{ "type": "Feature", "properties": { "City": "münster", "Country": "germany", "Latitude": 51.9625, "Longitude": 7.6256, "Total_Spend": 12860808.561415801 }, "geometry": { "type": "Point", "coordinates": [ 7.6256, 51.9625 ] } },
{ "type": "Feature", "properties": { "City": "newcastle", "Country": "australia", "Latitude": -32.9306, "Longitude": 151.7542, "Total_Spend": 12781677.303968349 }, "geometry": { "type": "Point", "coordinates": [ 151.7542, -32.9306 ] } },
{ "type": "Feature", "properties": { "City": "nuremberg", "Country": "germany", "Latitude": 49.4539, "Longitude": 11.0775, "Total_Spend": 12997637.93848799 }, "geometry": { "type": "Point", "coordinates": [ 11.0775, 49.4539 ] } },
{ "type": "Feature", "properties": { "City": "oshawa", "Country": "canada", "Latitude": 43.9, "Longitude": -78.85, "Total_Spend": 12958604.01372253 }, "geometry": { "type": "Point", "coordinates": [ -78.85, 43.9 ] } },
{ "type": "Feature", "properties": { "City": "ottawa", "Country": "canada", "Latitude": 45.4247, "Longitude": -75.695, "Total_Spend": 12929839.53320873 }, "geometry": { "type": "Point", "coordinates": [ -75.695, 45.4247 ] } },
{ "type": "Feature", "properties": { "City": "perth", "Country": "australia", "Latitude": -31.9558, "Longitude": 115.8597, "Total_Spend": 13245639.52860616 }, "geometry": { "type": "Point", "coordinates": [ 115.8597, -31.9558 ] } },
{ "type": "Feature", "properties": { "City": "quebec city", "Country": "canada", "Latitude": 46.8139, "Longitude": -71.2081, "Total_Spend": 12998796.483518429 }, "geometry": { "type": "Point", "coordinates": [ -71.2081, 46.8139 ] } },
{ "type": "Feature", "properties": { "City": "regina", "Country": "canada", "Latitude": 50.4547, "Longitude": -104.6067, "Total_Spend": 13000683.625555329 }, "geometry": { "type": "Point", "coordinates": [ -104.6067, 50.4547 ] } },
{ "type": "Feature", "properties": { "City": "saskatoon", "Country": "canada", "Latitude": 52.1333, "Longitude": -106.6833, "Total_Spend": 13007922.89400466 }, "geometry": { "type": "Point", "coordinates": [ -106.6833, 52.1333 ] } },
{ "type": "Feature", "properties": { "City": "st. john's", "Country": "canada", "Latitude": 47.4817, "Longitude": -52.7971, "Total_Spend": 12955405.60001705 }, "geometry": { "type": "Point", "coordinates": [ -52.7971, 47.4817 ] } },
{ "type": "Feature", "properties": { "City": "stuttgart", "Country": "germany", "Latitude": 48.7775, "Longitude": 9.18, "Total_Spend": 13399088.008992029 }, "geometry": { "type": "Point", "coordinates": [ 9.18, 48.7775 ] } },
{ "type": "Feature", "properties": { "City": "sydney", "Country": "australia", "Latitude": -33.8667, "Longitude": 151.2, "Total_Spend": 13126033.04029976 }, "geometry": { "type": "Point", "coordinates": [ 151.2, -33.8667 ] } },
{ "type": "Feature", "properties": { "City": "toowoomba", "Country": "australia", "Latitude": -27.5667, "Longitude": 151.95, "Total_Spend": 13329738.59371498 }, "geometry": { "type": "Point", "coordinates": [ 151.95, -27.5667 ] } },
{ "type": "Feature", "properties": { "City": "toronto", "Country": "canada", "Latitude": 43.7417, "Longitude": -79.3733, "Total_Spend": 13302525.42711686 }, "geometry": { "type": "Point", "coordinates": [ -79.3733, 43.7417 ] } },
{ "type": "Feature", "properties": { "City": "townsville", "Country": "australia", "Latitude": -19.25, "Longitude": 146.8167, "Total_Spend": 13532672.115006151 }, "geometry": { "type": "Point", "coordinates": [ 146.8167, -19.25 ] } },
{ "type": "Feature", "properties": { "City": "vancouver", "Country": "canada", "Latitude": 49.25, "Longitude": -123.1, "Total_Spend": 13093845.72354601 }, "geometry": { "type": "Point", "coordinates": [ -123.1, 49.25 ] } },
{ "type": "Feature", "properties": { "City": "victoria", "Country": "canada", "Latitude": 48.4283, "Longitude": -123.3647, "Total_Spend": 13357030.68825106 }, "geometry": { "type": "Point", "coordinates": [ -123.3647, 48.4283 ] } },
{ "type": "Feature", "properties": { "City": "windsor", "Country": "canada", "Latitude": 42.2833, "Longitude": -83.0, "Total_Spend": 12572442.902025631 }, "geometry": { "type": "Point", "coordinates": [ -83.0, 42.2833 ] } },
{ "type": "Feature", "properties": { "City": "winnipeg", "Country": "canada", "Latitude": 49.8844, "Longitude": -97.1464, "Total_Spend": 13912554.58659211 }, "geometry": { "type": "Point", "coordinates": [ -97.1464, 49.8844 ] } },
{ "type": "Feature", "properties": { "City": "wollongong", "Country": "australia", "Latitude": -34.4331, "Longitude": 150.8831, "Total_Spend": 13454960.39377499 }, "geometry": { "type": "Point", "coordinates": [ 150.8831, -34.4331 ] } },
{ "type": "Feature", "properties": { "City": "wuppertal", "Country": "germany", "Latitude": 51.2667, "Longitude": 7.1833, "Total_Spend": 13141219.47376268 }, "geometry": { "type": "Point", "coordinates": [ 7.1833, 51.2667 ] } }
]
}
